<!DOCTYPE html>
<html lang="en"><head><meta charset="UTF-8"/><meta name="viewport" content="width=device-width, initial-scale=1.0"/><title>TLE · Satellite Toolbox</title><link rel="canonical" href="https://juliaspace.github.io/SatelliteToolbox.jl/stable/man/orbit/tle/index.html"/><link href="https://cdnjs.cloudflare.com/ajax/libs/normalize/4.2.0/normalize.min.css" rel="stylesheet" type="text/css"/><link href="https://fonts.googleapis.com/css?family=Lato|Roboto+Mono" rel="stylesheet" type="text/css"/><link href="https://cdnjs.cloudflare.com/ajax/libs/font-awesome/4.6.3/css/font-awesome.min.css" rel="stylesheet" type="text/css"/><link href="https://cdnjs.cloudflare.com/ajax/libs/highlight.js/9.12.0/styles/default.min.css" rel="stylesheet" type="text/css"/><script>documenterBaseURL="../../.."</script><script src="https://cdnjs.cloudflare.com/ajax/libs/require.js/2.2.0/require.min.js" data-main="../../../assets/documenter.js"></script><script src="../../../siteinfo.js"></script><script src="../../../../versions.js"></script><link href="../../../assets/documenter.css" rel="stylesheet" type="text/css"/></head><body><nav class="toc"><a href="../../../"><img class="logo" src="../../../assets/logo.png" alt="Satellite Toolbox logo"/></a><h1>Satellite Toolbox</h1><select id="version-selector" onChange="window.location.href=this.value" style="visibility: hidden"></select><form class="search" id="search-form" action="../../../search/"><input id="search-query" name="q" type="text" placeholder="Search docs"/></form><ul><li><a class="toctext" href="../../../">Home</a></li><li><span class="toctext">Earth</span><ul><li><a class="toctext" href="../../earth/atmospheric_models/">Earth atmospheric models</a></li><li><a class="toctext" href="../../earth/geomagnetic_field_models/">Earth geomagnetic field models</a></li><li><a class="toctext" href="../../earth/space_indices/">Space indices</a></li></ul></li><li><span class="toctext">Orbit</span><ul><li><a class="toctext" href="../anomalies/">Anomalies</a></li><li><a class="toctext" href="../general/">General analysis</a></li><li><a class="toctext" href="../propagators/">Orbit propagators</a></li><li class="current"><a class="toctext" href>TLE</a><ul class="internal"></ul></li></ul></li><li><span class="toctext">Transformations</span><ul><li><a class="toctext" href="../../transformations/ecef_eci/">ECEF and ECI</a></li><li><a class="toctext" href="../../transformations/geodetic_geocentric/">Geodetic and Geocentric</a></li></ul></li><li><a class="toctext" href="../../../lib/library/">Library</a></li></ul></nav><article id="docs"><header><nav><ul><li>Orbit</li><li><a href>TLE</a></li></ul><a class="edit-page" href="https://github.com/JuliaSpace/SatelliteToolbox.jl/blob/master/docs/src/man/orbit/tle.md"><span class="fa"></span> Edit on GitHub</a></nav><hr/><div id="topbar"><span>TLE</span><a class="fa fa-bars" href="#"></a></div></header><h1><a class="nav-anchor" id="TLE-1" href="#TLE-1">TLE</a></h1><p>The TLE, or Two Line Elements set, is a data format that contains information about the orbit at a specific epoch of an Earth-orbiting object. The information is split into two lines with 70 characters each. In the following, it is presented an example of a TLE describing the orbit of the Brazilian satellite SCD-1 at 25 December 2018:</p><pre><code class="language-none">SCD 1                   
1 22490U 93009B   18359.76217587  .00000186  00000-0  84512-6 0  9998
2 22490  24.9694 116.1709 0043211  90.3968  62.0083 14.44539396366163</code></pre><p>For more information, see <a href="https://en.wikipedia.org/wiki/Two-line_element_set">https://en.wikipedia.org/wiki/Two-line_element_set</a>.</p><p>The TLE contains all the necessary information to propagate the orbit using, for example, the <a href="../propagators/#SGP4-1">SGP4</a> orbit propagator. Hence, this package contains a set of functions that helps to load the TLE information to be used in the <a href="../propagators/#Orbit-propagators-1">Orbit propagators</a>.</p><p>If the TLEs are stored in one file, then they can be loaded using the function:</p><pre><code class="language-julia">function read_tle(tle_filename::String, verify_checksum::Bool = true)</code></pre><p>where the <code>tle_filename</code> is the file path. Each TLE line has a checksum to verify the correctness of the data. By default, if the checksum is wrong, then this function will throw an error. The checksum verification can be avoided by setting <code>verify_checksum</code> to <code>false</code>.</p><p>This function returns an array of TLEs. Each TLE is an instance of the structure <a href="man/orbit/@ref"><code>TLE</code></a>.</p><pre><code class="language-julia-repl">julia&gt; tles = read_tle(&quot;tles&quot;)
2-element Array{TLE,1}:
 TLE: SCD 1 (Epoch = 2018-12-25T18:17:31.995)
 TLE: SCD 2 (Epoch = 2018-12-26T05:50:03.289)

julia&gt; tles[1]
                             TLE
    ==========================================================
                            Name: SCD 1
                Satellite number: 22490
        International designator: 93009B
                    Epoch (Year): 18
                     Epoch (Day): 359.76217587
              Epoch (Julian Day): 2458478.26218
              Element set number: 999
                    Eccentricity:   0.00432110 deg
                     Inclination:  24.96940000 deg
                            RAAN: 116.17090000 deg
             Argument of perigee:  90.39680000 deg
                    Mean anomaly:  62.00830000 deg
                 Mean motion (n):  14.44539396 revs/day
               Revolution number: 36616

                              B*: 0.000001 1/[er]

                        1   d
                       ---.--- n: 0.000002 rev/day²
                        2  dt

                        1   d²
                       ---.--- n: 0.000000 rev/day³
                        6  dt²
    ==========================================================

julia&gt; tles[2]
                             TLE
    ==========================================================
                            Name: SCD 2
                Satellite number: 25504
        International designator: 98060A
                    Epoch (Year): 18
                     Epoch (Day): 360.24309362
              Epoch (Julian Day): 2458478.74309
              Element set number: 999
                    Eccentricity:   0.00174310 deg
                     Inclination:  24.99670000 deg
                            RAAN: 319.86640000 deg
             Argument of perigee: 121.38100000 deg
                    Mean anomaly:   9.79390000 deg
                 Mean motion (n):  14.44057429 revs/day
               Revolution number: 6554

                              B*: 0.000011 1/[er]

                        1   d
                       ---.--- n: 0.000002 rev/day²
                        2  dt

                        1   d²
                       ---.--- n: 0.000000 rev/day³
                        6  dt²
    ==========================================================</code></pre><p>If the TLE is stored in a string, then it can be read using the following functions:</p><pre><code class="language-julia">function read_tle_from_string(tles::String, verify_checksum::Bool = true)
function read_tle_from_string(tle_l1::String, tle_l2::String, verify_checksum::Bool = false)</code></pre><p>In the first case, a list of TLEs can be passed in <code>tles</code>. In the second case, the first line and second line of a TLE can be passed in <code>tle_l1</code> and <code>tle_l2</code>, respectively. In both cases an array of TLEs is returned.  The argument <code>verify_checksum</code> has the same function as described previously.</p><pre><code class="language-julia-repl">julia&gt; tles = &quot;&quot;&quot;
       SCD 1
       1 22490U 93009B   18359.76217587  .00000186  00000-0  84512-6 0  9998
       2 22490  24.9694 116.1709 0043211  90.3968  62.0083 14.44539396366163
       SCD 2
       1 25504U 98060A   18360.24309362  .00000218  00000-0  10518-4 0  9996
       2 25504  24.9967 319.8664 0017431 121.3810   9.7939 14.44057429 65541
       &quot;&quot;&quot;;

julia&gt; read_tle_from_string(tles)
2-element Array{TLE,1}:
 TLE: SCD 1 (Epoch = 2018-12-25T18:17:31.995)
 TLE: SCD 2 (Epoch = 2018-12-26T05:50:03.289)

julia&gt; tle_l1 = &quot;1 22490U 93009B   18359.76217587  .00000186  00000-0  84512-6 0  9998&quot;
&quot;1 22490U 93009B   18359.76217587  .00000186  00000-0  84512-6 0  9998&quot;

julia&gt; tle_l2 = &quot;2 22490  24.9694 116.1709 0043211  90.3968  62.0083 14.44539396366163&quot;
&quot;2 22490  24.9694 116.1709 0043211  90.3968  62.0083 14.44539396366163&quot;

julia&gt; read_tle_from_string(tle_l1, tle_l2)
1-element Array{TLE,1}:
 TLE: UNDEFINED (Epoch = 2018-12-25T18:17:31.995)</code></pre><p>It is also available two special types of strings, <code>tle&quot;</code> and <code>tlenc&quot;</code>, that automatically loads a set of TLEs. In the first case the checksum is verified whereas in the second case it is not.</p><pre><code class="language-julia-repl">julia&gt; tles = tle&quot;&quot;&quot;
       SCD 1
       1 22490U 93009B   18359.76217587  .00000186  00000-0  84512-6 0  9998
       2 22490  24.9694 116.1709 0043211  90.3968  62.0083 14.44539396366163
       SCD 2
       1 25504U 98060A   18360.24309362  .00000218  00000-0  10518-4 0  9996
       2 25504  24.9967 319.8664 0017431 121.3810   9.7939 14.44057429 65541
       &quot;&quot;&quot;
2-element Array{TLE,1}:
 TLE: SCD 1 (Epoch = 2018-12-25T18:17:31.995)
 TLE: SCD 2 (Epoch = 2018-12-26T05:50:03.289)

julia&gt; tles = tle&quot;&quot;&quot;
       SCD 1
       1 22490U 93009B   18359.76217587  .00000186  00000-0  84512-6 0  9998
       2 22490  24.9694 116.1709 0043211  90.3968  62.0083 14.44539396366164
       &quot;&quot;&quot;
ERROR: LoadError: The TLE file is not valid (error in line 3): Expected checksum: 3, line checksum: 4.
...

julia&gt; tles = tlenc&quot;&quot;&quot;
       SCD 1
       1 22490U 93009B   18359.76217587  .00000186  00000-0  84512-6 0  9998
       2 22490  24.9694 116.1709 0043211  90.3968  62.0083 14.44539396366164
       &quot;&quot;&quot;
1-element Array{TLE,1}:
 TLE: SCD 1 (Epoch = 2018-12-25T18:17:31.995)</code></pre><footer><hr/><a class="previous" href="../propagators/"><span class="direction">Previous</span><span class="title">Orbit propagators</span></a><a class="next" href="../../transformations/ecef_eci/"><span class="direction">Next</span><span class="title">ECEF and ECI</span></a></footer></article></body></html>
